{"type": "FeatureCollection", "features": [ {"type": "Feature", "properties": {"norad_id": 28659, "name": "DIRECTV 8", "group": "intelsat", "lat": -0.016899601112151524, "lon": -103.66380068210493, "alt_km": 35774.47537781943, "timestamp": "2025-12-26T18:39:31.939901+00:00", "meta": {"OBJECT_NAME": "DIRECTV 8", "OBJECT_ID": "2005-019A", "EPOCH": "2025-12-26T09:14:16.477152", "MEAN_MOTION": 1.00271765, "ECCENTRICITY": 0.00031342, "INCLINATION": 0.0135, "RA_OF_ASC_NODE": 57.3028, "ARG_OF_PERICENTER": 228.1399, "MEAN_ANOMALY": 189.2168, "EPHEMERIS_TYPE": 0, "CLASSIFICATION_TYPE": "U", "NORAD_CAT_ID": 28659, "ELEMENT_SET_NO": 999, "REV_AT_EPOCH": 7534, "BSTAR": 0, "MEAN_MOTION_DOT": 2.3e-07, "MEAN_MOTION_DDOT": 0}, "tle": {"line1": "1 28659U 05019A   25360.38491293  .00000023  00000+0  00000+0 0  9993", "line2": "2 28659   0.0135  57.3028 0003134 228.1399 189.2168  1.00271765 75344"}}, "geometry": {"type": "Point", "coordinates": [-103.66380068210493, -0.016899601112151524]}}, {"type": "Feature", "properties": {"norad_id": 28702, "name": "GALAXY 28 (G-28)", "group": "intelsat", "lat": -1.5999967771927521, "lon": -65.27094019386868, "alt_km": 35685.78781802657, "timestamp": "2025-12-26T18:39:31.939913+00:00", "meta": {"OBJECT_NAME": "GALAXY 28 (G-28)", "OBJECT_ID": "2005-022A", "EPOCH": "2025-12-26T11:40:12.062208", "MEAN_MOTION": 1.00599644, "ECCENTRICITY": 0.00034567, "INCLINATION": 2.855, "RA_OF_ASC_NODE": 81.1219, "ARG_OF_PERICENTER": 160.9204, "MEAN_ANOMALY": 307.2288, "EPHEMERIS_TYPE": 0, "CLASSIFICATION_TYPE": "U", "NORAD_CAT_ID": 28702, "ELEMENT_SET_NO": 999, "REV_AT_EPOCH": 5024, "BSTAR": 0, "MEAN_MOTION_DOT": -2.33e-06, "MEAN_MOTION_DDOT": 0}, "tle": {"line1": "1 28702U 05022A   25360.48625072 -.00000233  00000+0  00000+0 0  9995", "line2": "2 28702   2.8550  81.1219 0003456 160.9204 307.2288  1.00599644 50242"}}, "geometry": {"type": "Point", "coordinates": [-65.27094019386868, -1.5999967771927521]}}, {"type": "Feature", "properties": {"norad_id": 29236, "name": "GALAXY 16 (G-16)", "group": "intelsat", "lat": 0.02212924048253311, "lon": -83.61782958134184, "alt_km": 35774.87376518534, "timestamp": "2025-12-26T18:39:31.939925+00:00", "meta": {"OBJECT_NAME": "GALAXY 16 (G-16)", "OBJECT_ID": "2006-023A", "EPOCH": "2025-12-26T14:16:23.522880", "MEAN_MOTION": 1.00271426, "ECCENTRICITY": 0.00026731, "INCLINATION": 0.044, "RA_OF_ASC_NODE": 195.1491, "ARG_OF_PERICENTER": 82.4387, "MEAN_ANOMALY": 292.8373, "EPHEMERIS_TYPE": 0, "CLASSIFICATION_TYPE": "U", "NORAD_CAT_ID": 29236, "ELEMENT_SET_NO": 999, "REV_AT_EPOCH": 7124, "BSTAR": 0, "MEAN_MOTION_DOT": -1.05e-06, "MEAN_MOTION_DDOT": 0}, "tle": {"line1": "1 29236U 06023A   25360.59471670 -.00000105  00000+0  00000+0 0  9993", "line2": "2 29236   0.0440 195.1491 0002673  82.4387 292.8373  1.00271426 71243"}}, "geometry": {"type": "Point", "coordinates": [-83.61782958134184, 0.02212924048253311]}}, {"type": "Feature", "properties": {"norad_id": 29494, "name": "DIRECTV 9S", "group": "intelsat", "lat": -0.39942281579931355, "lon": -85.81791405433493, "alt_km": 35773.22915803998, "timestamp": "2025-12-26T18:39:31.939940+00:00", "meta": {"OBJECT_NAME": "DIRECTV 9S", "OBJECT_ID": "2006-043A", "EPOCH": "2025-12-26T11:22:08.462784", "MEAN_MOTION": 1.00271472, "ECCENTRICITY": 0.00030901, "INCLINATION": 1.9736, "RA_OF_ASC_NODE": 83.0647, "ARG_OF_PERICENTER": 197.4585, "MEAN_ANOMALY": 244.0274, "EPHEMERIS_TYPE": 0, "CLASSIFICATION_TYPE": "U", "NORAD_CAT_ID": 29494, "ELEMENT_SET_NO": 999, "REV_AT_EPOCH": 4965, "BSTAR": 0, "MEAN_MOTION_DOT": -9.2e-07, "MEAN_MOTION_DDOT": 0}, "tle": {"line1": "1 29494U 06043A   25360.47370906 -.00000092  00000+0  00000+0 0  9993", "line2": "2 29494   1.9736  83.0647 0003090 197.4585 244.0274  1.00271472 49656"}}, "geometry": {"type": "Point", "coordinates": [-85.81791405433493, -0.39942281579931355]}}, {"type": "Feature", "properties": {"norad_id": 31307, "name": "GALAXY 17 (G-17)", "group": "intelsat", "lat": -1.2200382922698019, "lon": -69.57851705234656, "alt_km": 35766.45873019739, "timestamp": "2025-12-26T18:39:31.939952+00:00", "meta": {"OBJECT_NAME": "GALAXY 17 (G-17)", "OBJECT_ID": "2007-016B", "EPOCH": "2025-12-26T13:30:50.905152", "MEAN_MOTION": 1.00271679, "ECCENTRICITY": 0.00056354, "INCLINATION": 2.5327, "RA_OF_ASC_NODE": 82.127, "ARG_OF_PERICENTER": 174.459, "MEAN_ANOMALY": 316.4453, "EPHEMERIS_TYPE": 0, "CLASSIFICATION_TYPE": "U", "NORAD_CAT_ID": 31307, "ELEMENT_SET_NO": 999, "REV_AT_EPOCH": 6807, "BSTAR": 0, "MEAN_MOTION_DOT": -1.85e-06, "MEAN_MOTION_DDOT": 0}, "tle": {"line1": "1 31307U 07016B   25360.56308918 -.00000185  00000+0  00000+0 0  9997", "line2": "2 31307   2.5327  82.1270 0005635 174.4590 316.4453  1.00271679 68074"}}, "geometry": {"type": "Point", "coordinates": [-69.57851705234656, -1.2200382922698019]}}, {"type": "Feature", "properties": {"norad_id": 31862, "name": "DIRECTV 10", "group": "intelsat", "lat": -0.005910937038867059, "lon": -87.34212201446658, "alt_km": 35780.92945310081, "timestamp": "2025-12-26T18:39:31.939963+00:00", "meta": {"OBJECT_NAME": "DIRECTV 10", "OBJECT_ID": "2007-032A", "EPOCH": "2025-12-25T09:09:15.831072", "MEAN_MOTION": 1.00280696, "ECCENTRICITY": 7.66e-05, "INCLINATION": 0.0126, "RA_OF_ASC_NODE": 126.575, "ARG_OF_PERICENTER": 111.4706, "MEAN_ANOMALY": 250.6263, "EPHEMERIS_TYPE": 0, "CLASSIFICATION_TYPE": "U", "NORAD_CAT_ID": 31862, "ELEMENT_SET_NO": 999, "REV_AT_EPOCH": 4385, "BSTAR": 0, "MEAN_MOTION_DOT": -8.3e-07, "MEAN_MOTION_DDOT": 0}, "tle": {"line1": "1 31862U 07032A   25359.38143323 -.00000083  00000+0  00000+0 0  9993", "line2": "2 31862   0.0126 126.5750 0000766 111.4706 250.6263  1.00280696 43852"}}, "geometry": {"type": "Point", "coordinates": [-87.34212201446658, -0.005910937038867059]}}, {"type": "Feature", "properties": {"norad_id": 32253, "name": "INTELSAT 11 (IS-11)", "group": "intelsat", "lat": 3.0861571528778007, "lon": 179.3226548032637, "alt_km": 36120.41256950226, "timestamp": "2025-12-26T18:39:31.939975+00:00", "meta": {"OBJECT_NAME": "INTELSAT 11 (IS-11)", "OBJECT_ID": "2007-044B", "EPOCH": "2025-12-26T11:04:38.607744", "MEAN_MOTION": 0.99053021, "ECCENTRICITY": 0.00086494, "INCLINATION": 3.1139, "RA_OF_ASC_NODE": 80.8223, "ARG_OF_PERICENTER": 171.9228, "MEAN_ANOMALY": 174.017, "EPHEMERIS_TYPE": 0, "CLASSIFICATION_TYPE": "U", "NORAD_CAT_ID": 32253, "ELEMENT_SET_NO": 999, "REV_AT_EPOCH": 6673, "BSTAR": 0, "MEAN_MOTION_DOT": -2.16e-06, "MEAN_MOTION_DDOT": 0}, "tle": {"line1": "1 32253U 07044B   25360.46155796 -.00000216  00000+0  00000+0 0  9997", "line2": "2 32253   3.1139  80.8223 0008649 171.9228 174.0170  0.99053021 66735"}}, "geometry": {"type": "Point", "coordinates": [179.3226548032637, 3.0861571528778007]}}, {"type": "Feature", "properties": {"norad_id": 32388, "name": "HORIZONS-2", "group": "intelsat", "lat": -1.3685477311086574, "lon": -58.41667801423941, "alt_km": 35767.91607387831, "timestamp": "2025-12-26T18:39:31.939987+00:00", "meta": {"OBJECT_NAME": "HORIZONS-2", "OBJECT_ID": "2007-063B", "EPOCH": "2025-12-26T11:37:39.127296", "MEAN_MOTION": 1.00268933, "ECCENTRICITY": 0.00048625, "INCLINATION": 2.1553, "RA_OF_ASC_NODE": 82.8098, "ARG_OF_PERICENTER": 197.5129, "MEAN_ANOMALY": 275.5092, "EPHEMERIS_TYPE": 0, "CLASSIFICATION_TYPE": "U", "NORAD_CAT_ID": 32388, "ELEMENT_SET_NO": 999, "REV_AT_EPOCH": 6608, "BSTAR": 0, "MEAN_MOTION_DOT": -2.32e-06, "MEAN_MOTION_DDOT": 0}, "tle": {"line1": "1 32388U 07063B   25360.48448064 -.00000232  00000+0  00000+0 0  9990", "line2": "2 32388   2.1553  82.8098 0004862 197.5129 275.5092  1.00268933 66083"}}, "geometry": {"type": "Point", "coordinates": [-58.41667801423941, -1.3685477311086574]}}, {"type": "Feature", "properties": {"norad_id": 32729, "name": "DIRECTV 11", "group": "intelsat", "lat": 0.021740116430631378, "lon": -83.87006808664765, "alt_km": 35787.41894609338, "timestamp": "2025-12-26T18:39:31.939999+00:00", "meta": {"OBJECT_NAME": "DIRECTV 11", "OBJECT_ID": "2008-013A", "EPOCH": "2025-12-24T22:53:59.758368", "MEAN_MOTION": 1.00260442, "ECCENTRICITY": 0.0001047, "INCLINATION": 0.0475, "RA_OF_ASC_NODE": 199.7105, "ARG_OF_PERICENTER": 11.4593, "MEAN_ANOMALY": 126.8496, "EPHEMERIS_TYPE": 0, "CLASSIFICATION_TYPE": "U", "NORAD_CAT_ID": 32729, "ELEMENT_SET_NO": 999, "REV_AT_EPOCH": 4384, "BSTAR": 0, "MEAN_MOTION_DOT": -1.03e-06, "MEAN_MOTION_DDOT": 0}, "tle": {"line1": "1 32729U 08013A   25358.95416387 -.00000103  00000+0  00000+0 0  9994", "line2": "2 32729   0.0475 199.7105 0001047  11.4593 126.8496  1.00260442 43842"}}, "geometry": {"type": "Point", "coordinates": [-83.87006808664765, 0.021740116430631378]}}, {"type": "Feature", "properties": {"norad_id": 32951, "name": "GALAXY 18 (G-18)", "group": "intelsat", "lat": -0.03279143382711368, "lon": -107.6267001381582, "alt_km": 35774.20890408833, "timestamp": "2025-12-26T18:39:31.940011+00:00", "meta": {"OBJECT_NAME": "GALAXY 18 (G-18)", "OBJECT_ID": "2008-024A", "EPOCH": "2025-12-26T12:08:40.986816", "MEAN_MOTION": 1.00271965, "ECCENTRICITY": 0.00032454, "INCLINATION": 0.016, "RA_OF_ASC_NODE": 354.7161, "ARG_OF_PERICENTER": 288.4003, "MEAN_ANOMALY": 231.3032, "EPHEMERIS_TYPE": 0, "CLASSIFICATION_TYPE": "U", "NORAD_CAT_ID": 32951, "ELEMENT_SET_NO": 999, "REV_AT_EPOCH": 4412, "BSTAR": 0, "MEAN_MOTION_DOT": 4.7e-07, "MEAN_MOTION_DDOT": 0}, "tle": {"line1": "1 32951U 08024A   25360.50602994  .00000047  00000+0  00000+0 0  9994", "line2": "2 32951   0.0160 354.7161 0003245 288.4003 231.3032  1.00271965 44121"}}, "geometry": {"type": "Point", "coordinates": [-107.6267001381582, -0.03279143382711368]}}]}